SCD 1                   
1 22490U 93009B   26158.03921617  .00000403  00000+0  59464-4 0  9997
2 22490  24.9696 270.2363 0042073  30.8724 129.6728 14.46115416759647
TECHSAT 1B (GO-32)      
1 25397U 98043D   26157.59817634  .00000069  00000+0  49896-4 0  9998
2 25397  99.0065 150.0898 0000464 193.9791 166.1374 14.24426350449827
SCD 2                   
1 25504U 98060A   26158.21676594  .00000424  00000+0  67622-4 0  9997
2 25504  24.9937 133.6452 0016795  18.7128   4.5179 14.45521991458881
DLR-TUBSAT              
1 25757U 99029B   26158.23545086  .00000127  00000+0  42973-4 0  9998
2 25757  98.6693 153.4120 0014666  24.9874 335.2027 14.52424341431800
TERRA                   
1 25994U 99068A   26158.01926653  .00000404  00000+0  91295-4 0  9992
2 25994  97.9460 207.9683 0000883 241.3027 180.8680 14.61095053408129
MAROC-TUBSAT            
1 27004U 01056D   26158.24203481 -.00000026  00000+0  23436-4 0  9991
2 27004  99.8080 334.9145 0020024 166.2655  14.3493 13.70261967224821
AQUA                    
1 27424U 02022A   26158.19023471  .00000855  00000+0  17988-3 0  9997
2 27424  98.4272 127.2738 0001499  54.9130 315.7137 14.62142940281818
SHIYAN-1 (SY-1)         
1 28220U 04012A   26157.93994246  .00015368  00000+0  47656-3 0  9991
2 28220  97.8686 235.3448 0006449  65.6499 294.5415 15.33498459209520
AURA                    
1 28376U 04026A   26158.12617657  .00000843  00000+0  18052-3 0  9998
2 28376  98.3413 114.4966 0001348  71.0302 289.1044 14.61313848164745
IRS-P5 (CARTOSAT-1)     
1 28649U 05017A   26158.01193290  .00001585  00000+0  16559-3 0  9996
2 28649  97.5311 181.5381 0002636  92.6873 267.4648 14.91022708142307
SINAH 1                 
1 28893U 05043D   26158.07661219  .00000345  00000+0  74882-4 0  9990
2 28893  98.2848 292.3400 0013383 311.3834  48.6217 14.64150887 99046
RESURS-DK 1             
1 29228U 06021A   26157.85531292  .00002607  00000+0  15267-3 0  9996
2 29228  69.9339   6.2973 0006334 300.4331  59.6209 15.13170757101012
ARIRANG-2 (KOMPSAT-2)   
1 29268U 06031A   26158.27156485  .00000359  00000+0  75825-4 0  9994
2 29268  97.8308 343.1979 0015848 103.0740  69.9371 14.64653778 60025
LAPAN-TUBSAT            
1 29709U 07001A   26158.22094900  .00000822  00000+0  10074-3 0  9999
2 29709  98.1345 157.2207 0011131 213.3278 146.7237 14.85940793 49672
HAIYANG-1B              
1 31113U 07010A   26158.21613119  .00000116  00000+0  59782-4 0  9995
2 31113  98.3490 140.4482 0012464 227.6242 132.3887 14.31024451999205
COSMO-SKYMED 1          
1 31598U 07023A   26158.24295703  .00002130  00000+0  19003-3 0  9993
2 31598  97.8860 350.0162 0001260  80.4578 279.6786 14.97056031 28308
TERRASAR-X              
1 31698U 07026A   26157.45519486  .00000822  00000+0  42342-4 0  9995
2 31698  97.4446 165.3145 0001807  76.8069 283.3367 15.19152015 51592
WORLDVIEW-1 (WV-1)      
1 32060U 07041A   26158.05070818  .00006597  00000+0  27399-3 0  9993
2 32060  97.3862 277.9419 0003144  48.5634 311.5873 15.24154013 41334
YAOGAN-3                
1 32289U 07055A   26158.32766969  .00002446  00000+0  25468-3 0  9994
2 32289  97.8161 188.3035 0001936  86.4857 273.6583 14.90745427  4408
COSMO-SKYMED 2          
1 32376U 07059A   26158.23697323  .00000496  00000+0  68793-4 0  9994
2 32376  97.8885 341.9795 0001439  87.6950 272.4428 14.82163738   538
RADARSAT-2              
1 32382U 07061A   26158.31186326 -.00000053  00000+0 -34654-5 0  9990
2 32382  98.5780 165.3857 0001303  81.9084 278.2246 14.29982593964540
CARTOSAT-2A             
1 32783U 08021A   26158.23814041  .00001221  00000+0  17097-3 0  9991
2 32783  97.7634 207.2862 0012602 138.0401 222.1778 14.79225509977338
HUANJING 1A (HJ-1A)     
1 33320U 08041A   26158.25438755  .00001985  00000+0  24413-3 0  9994
2 33320  97.6685 144.4777 0019104 166.1808 193.9933 14.83965788956931
HUANJING 1B (HJ-1B)     
1 33321U 08041B   26158.28643264  .00001080  00000+0  13688-3 0  9999
2 33321  97.6522 147.7102 0035117 214.1241 145.7716 14.83301626956947
GEOEYE 1                
1 33331U 08042A   26157.97324911  .00000509  00000+0  10447-3 0  9996
2 33331  98.1236 232.0337 0005578  93.8996 266.2844 14.64716229948659
THEOS                   
1 33396U 08049A   26158.24595538 -.00000150  00000+0 -50529-4 0  9990
2 33396  98.5570 215.8521 0001304  79.1334 280.9989 14.20131202916556
COSMO-SKYMED 3          
1 33412U 08054A   26158.24926373  .00003300  00000+0  22502-3 0  9997
2 33412  97.8293  16.6550 0014241 304.4458  55.5422 15.06889511955440
YAOGAN-4                
1 33446U 08061A   26158.04759266  .00001102  00000+0  14132-3 0  9993
2 33446  97.9306  91.6330 0015709 102.3372 257.9601 14.83181068944162
GOSAT (IBUKI)           
1 33492U 09002A   26158.04740032  .00000048  00000+0  16958-4 0  9998
2 33492  98.0880 269.2560 0001560  91.4313 268.7071 14.67539267929976
DEIMOS-1                
1 35681U 09041A   26158.28359725  .00000702  00000+0  11088-3 0  9999
2 35681  97.7399 315.9412 0000991 139.0404 221.0881 14.75227632905425
